{"spkid": "50028833", "covariance": {"labels": ["e", "q", "tp", "node", "peri", "i"], "elements": [{"label": "e", "sigma": 1.94474139377794e-08, "name": "e", "units": null, "title": "eccentricity", "value": ".6192862457818383"}, {"label": "q", "units": "au", "value": ".6757185109919761", "title": "perihelion distance", "name": "q", "sigma": 3.43389670404898e-08}, {"value": "2457572.082043545289", "title": "time of perihelion passage", "units": "TDB", "name": "tp", "sigma": 4.86639747858228e-06, "label": "tp"}, {"label": "node", "units": "deg", "title": "longitude of the ascending node", "value": "160.3664481445697", "sigma": 4.00485174805005e-05, "name": "om"}, {"title": "argument of perihelion", "value": "247.7536398307827", "units": "deg", "name": "w", "sigma": 3.88980203433587e-05, "label": "peri"}, {"title": "inclination", "value": "10.44668116002339", "units": "deg", "sigma": 1.9372105697995e-05, "name": "i", "label": "i"}], "data": [["3.782019088673345E-16", "-6.677637590606192E-16", "3.548419368493716E-14", "4.073954773384987E-13", "-3.526835084021519E-13", "-2.0611000187005E-13"], ["-6.677637590606192E-16", "1.179164657407847E-15", "-6.2829459657626E-14", "-7.216593126980523E-13", "6.251393419016375E-13", "3.641352989613453E-13"], ["3.548419368493716E-14", "-6.2829459657626E-14", "2.368182441955197E-11", "2.409833260402079E-11", "-3.694588440578702E-12", "-4.779960702493828E-12"], ["4.073954773384987E-13", "-7.216593126980523E-13", "2.409833260402079E-11", "1.603883752385951E-9", "-1.543019560787281E-9", "-7.097195267084816E-10"], ["-3.526835084021519E-13", "6.251393419016375E-13", "-3.694588440578702E-12", "-1.543019560787281E-9", "1.513055986632345E-9", "6.71030617468123E-10"], ["-2.0611000187005E-13", "3.641352989613453E-13", "-4.779960702493828E-12", "-7.097195267084816E-10", "6.71030617468123E-10", "3.752784791742921E-10"]], "epoch": "2457920.5"}, "elements": [{"label": "e", "name": "e", "sigma": "1.9504E-8", "units": null, "value": ".6195472772764437", "title": "eccentricity"}, {"sigma": "1.6263E-9", "name": "a", "value": "1.774939620395451", "title": "semi-major axis", "units": "au", "label": "a"}, {"name": "q", "sigma": "3.4273E-8", "title": "perihelion distance", "value": ".6752806112493648", "units": "au", "label": "q"}, {"name": "i", "sigma": "1.9372E-5", "value": "10.44432835597943", "title": "inclination; angle with respect to x-y ecliptic plane", "units": "deg", "label": "i"}, {"name": "om", "sigma": "4.0035E-5", "units": "deg", "title": "longitude of the ascending node", "value": "160.1788186399111", "label": "node"}, {"label": "peri", "value": "247.9783341982759", "title": "argument of perihelion", "units": "deg", "name": "w", "sigma": "3.8851E-5"}, {"label": "M", "units": "deg", "title": "mean anomaly", "value": "72.65429934228447", "name": "ma", "sigma": "2.6994E-6"}, {"units": "TDB", "title": "time of perihelion passage", "value": "2461026.185858698938", "sigma": "6.3239E-6", "name": "tp", "label": "tp"}, {"units": "d", "value": "863.7216439559026", "title": "sidereal orbital period", "name": "per", "sigma": "1.1871E-6", "label": "period"}, {"label": "n", "name": "n", "sigma": "5.7283E-10", "title": "mean motion", "value": ".416800947989651", "units": "deg/d"}, {"label": "Q", "title": "aphelion distance", "value": "2.874598629541537", "units": "au", "sigma": "2.6338E-9", "name": "ad"}], "epoch": "2461200.5"}